TEVEL2-2                
1 63219U 25052K   26068.64848259  .00020339  00000+0  69428-3 0  9991
2 63219  97.3987 324.7700 0004693 105.7930 254.3828 15.30343745 54855
STARLINK-34282          
1 64454U 25130S   26068.33369582  .00027848  00000+0  94858-3 0  9990
2 64454  53.1593  92.6673 0000977  84.0879 276.0233 15.30208456 40611
