[{"OBJECT_NAME":"TEVEL2-2","OBJECT_ID":"2025-052K","EPOCH":"2026-03-09T15:33:48.895776","MEAN_MOTION":15.30343745,"ECCENTRICITY":0.0004693,"INCLINATION":97.3987,"RA_OF_ASC_NODE":324.77,"ARG_OF_PERICENTER":105.793,"MEAN_ANOMALY":254.3828,"EPHEMERIS_TYPE":0,"CLASSIFICATION_TYPE":"U","NORAD_CAT_ID":63219,"ELEMENT_SET_NO":999,"REV_AT_EPOCH":5485,"BSTAR":0.00069428,"MEAN_MOTION_DOT":0.00020339,"MEAN_MOTION_DDOT":0},{"OBJECT_NAME":"STARLINK-34282","OBJECT_ID":"2025-130S","EPOCH":"2026-03-09T08:00:31.318848","MEAN_MOTION":15.30208456,"ECCENTRICITY":9.774e-5,"INCLINATION":53.1593,"RA_OF_ASC_NODE":92.6673,"ARG_OF_PERICENTER":84.0879,"MEAN_ANOMALY":276.0233,"EPHEMERIS_TYPE":0,"CLASSIFICATION_TYPE":"U","NORAD_CAT_ID":64454,"ELEMENT_SET_NO":999,"REV_AT_EPOCH":4061,"BSTAR":0.00094858386,"MEAN_MOTION_DOT":0.00027848,"MEAN_MOTION_DDOT":0}]
